1 36516U 10016A 26162.22772390 -.00000097 00000+0 00000+0 0 9993 
2 36516 0.0254 303.6615 0002653 137.9735 158.9279 1.00269649 58976 
1 36581U 10021A 26162.12877267 .00000154 00000+0 00000+0 0 9992 
2 36581 1.4548 83.6295 0004502 354.6786 251.0601 1.00275565 58807 
1 36582U 10021B 26162.19799818 .00000105 00000+0 00000+0 0 9991 
2 36582 0.0295 49.3026 0002587 45.8717 248.8404 1.00270580 58893 
1 36590U 10024A 26161.87244222 -.00000121 00000+0 00000+0 0 9990 
2 36590 4.4996 61.5424 0008216 351.6235 239.8480 1.00272403 58704 
1 36592U 10025A 26162.20146486 .00000171 00000+0 00000+0 0 9998 
2 36592 0.0702 111.0337 0003135 82.2365 169.3137 1.00267071 53158 
1 36744U 10032A 26154.99142485 -.00000334 00000+0 00000+0 0 9999 
2 36744 4.7750 75.5286 0001016 4.5847 297.3769 1.00270643 50953 
1 36745U 10032B 26162.20146486 .00000171 00000+0 00000+0 0 9996 
2 36745 0.0785 55.3621 0005597 44.9357 262.2486 1.00271119 58585 
1 36792U 10034A 26162.24317883 .00000017 00000+0 00000+0 0 9994 
2 36792 0.0206 42.0746 0001664 42.2763 143.9740 1.00271775 58260 
1 36828U 10036A 26162.01077356 -.00000027 00000+0 00000+0 0 9991 
2 36828 54.3015 163.0158 0059203 225.1338 342.7569 1.00274001 58031 
1 36830U 10037A 26162.19401149 -.00000040 00000+0 00000+0 0 9990 
2 36830 0.0453 148.5057 0004337 323.7153 210.1826 1.00271613 58313 
1 36831U 10037B 26162.19600484 .00000036 00000+0 00000+0 0 9998 
2 36831 0.0076 40.9164 0006767 35.6246 256.4524 1.00271382 58243 
1 36868U 10039A 26161.93860565 .00000160 00000+0 00000+0 0 9997 
2 36868 8.2029 68.1290 0003913 6.5164 192.4639 1.00271626 53599 
1 37185U 10053A 26161.91780745 -.00000005 00000+0 00000+0 0 9994 
2 37185 0.0638 273.9953 0002927 284.4226 276.0636 1.00269607 57428 
1 37207U 10056B 26162.00335279 -.00000333 00000+0 00000+0 0 9995 
2 37207 0.0758 248.9835 0001411 300.3987 181.0407 1.00270693 52036 
1 37210U 10057A 26162.04816123 -.00000097 00000+0 00000+0 0 9993 
2 37210 3.6304 68.9848 0004995 198.4306 169.3376 1.00271518 57239 
1 37218U 10061A 26161.31980766 -.00000103 00000+0 00000+0 0 9998 
2 37218 5.1097 50.8591 0002306 10.4068 211.2027 1.00268505 57120 
1 37237U 10065A 26161.92892965 .00000105 00000+0 00000+0 0 9994 
2 37237 5.6269 73.0945 0000899 311.3587 223.0577 1.00273154 6829 
1 37238U 10065B 26162.13717938 .00000016 00000+0 00000+0 0 9996 
2 37238 0.0140 104.3450 0002577 344.4483 286.0783 1.00270702 53188 
1 37256U 10068A 26161.68988234 -.00000227 00000+0 00000+0 0 9992 
2 37256 47.5603 271.9154 0055523 212.3969 130.7661 1.00285724 56724 
1 37258U 10069A 26161.98306286 .00000079 00000+0 00000+0 0 9993 
2 37258 0.0610 10.3856 0003936 122.2918 129.5710 1.00271507 43941 
1 37264U 10070A 26162.28004241 -.00000199 00000+0 00000+0 0 9996 
2 37264 0.0428 145.1492 0005147 319.1474 226.1361 1.00268384 53124 
1 37265U 10070B 26162.21433755 -.00000094 00000+0 00000+0 0 9990 
2 37265 0.0027 348.2837 0002005 102.7500 45.5848 1.00270877 56716 
1 37384U 11013A 26160.59429605 -.00000192 00000+0 00000+0 0 9997 
2 37384 62.3960 40.2253 0034379 184.4451 355.1654 1.00270057 55586 
1 37392U 11016A 26162.19229880 -.00000208 00000+0 00000+0 0 9998 
2 37392 1.7899 82.6931 0003686 2.3471 212.0266 1.00271416 53222 
1 37393U 11016B 26161.87457743 .00000000 00000+0 00000+0 0 9993 
2 37393 0.0193 350.4004 0002746 108.4351 167.7131 1.00265650 42341 
1 37481U 11019A 26162.20571155 .00000114 00000+0 00000+0 0 9992 
2 37481 4.5235 53.1308 0002152 19.1221 313.1523 1.00272431 55334 
1 37602U 11021A 26161.89775572 -.00000262 00000+0 00000+0 0 9998 
2 37602 0.0028 3.9890 0002190 54.9233 100.5404 1.00268785 55772 
1 37605U 11022A 26162.20631822 .00000101 00000+0 00000+0 0 9998 
2 37605 2.1148 81.8932 0002304 206.4188 100.5863 1.00271617 53150 
1 37606U 11022B 26162.14159940 -.00000193 00000+0 00000+0 0 9990 
2 37606 0.0166 304.3949 0001563 152.7789 301.2901 1.00267627 55213 
1 37677U 11026A 26162.14107940 -.00000171 00000+0 00000+0 0 9991 
2 37677 1.0299 84.2860 0003515 1.3532 310.1636 1.00269879 54932 
1 37748U 11035A 26162.26909068 -.00000085 00000+0 00000+0 0 9998 
2 37748 1.3107 83.1495 0002509 352.4924 177.8342 1.00270485 54534 
1 37749U 11035B 26161.71347519 -.00000179 00000+0 00000+0 0 9999 
2 37749 0.0327 246.7151 0001356 265.8972 89.7957 1.00269108 53330 
