OBJECT_NAME,OBJECT_ID,EPOCH,MEAN_MOTION,ECCENTRICITY,INCLINATION,RA_OF_ASC_NODE,ARG_OF_PERICENTER,MEAN_ANOMALY,EPHEMERIS_TYPE,CLASSIFICATION_TYPE,NORAD_CAT_ID,ELEMENT_SET_NO,REV_AT_EPOCH,BSTAR,MEAN_MOTION_DOT,MEAN_MOTION_DDOT
SES-1,2010-016A,2026-06-11T05:27:55.344960,1.00269649,.00026531,0.0254,303.6615,137.9735,158.9279,0,U,36516,999,5897,0,-.97E-6,0
ASTRA 3B,2010-021A,2026-06-11T03:05:25.958688,1.00275565,.00045021,1.4548,83.6295,354.6786,251.0601,0,U,36581,999,5880,0,.154E-5,0
COMSATBW-2,2010-021B,2026-06-11T04:45:07.042752,1.00270580,.00025873,0.0295,49.3026,45.8717,248.8404,0,U,36582,999,5889,0,.105E-5,0
BEIDOU-2 G3,2010-024A,2026-06-10T20:56:19.007808,1.00272403,.00082164,4.4996,61.5424,351.6235,239.8480,0,U,36590,999,5870,0,-.121E-5,0
BADR-5,2010-025A,2026-06-11T04:50:06.563904,1.00267071,.00031356,0.0702,111.0337,82.2365,169.3137,0,U,36592,999,5315,0,.171E-5,0
COMS 1,2010-032A,2026-06-03T23:47:39.107040,1.00270643,.0001016,4.7750,75.5286,4.5847,297.3769,0,U,36744,999,5095,0,-.334E-5,0
ARABSAT-5A,2010-032B,2026-06-11T04:50:06.563904,1.00271119,.00055975,0.0785,55.3621,44.9357,262.2486,0,U,36745,999,5858,0,.171E-5,0
ECHOSTAR 15,2010-034A,2026-06-11T05:50:10.650912,1.00271775,.00016647,0.0206,42.0746,42.2763,143.9740,0,U,36792,999,5826,0,.17E-6,0
BEIDOU-2 IGSO-1,2010-036A,2026-06-11T00:15:30.835584,1.00274001,.00592032,54.3015,163.0158,225.1338,342.7569,0,U,36828,999,5803,0,-.27E-6,0
NILESAT 201,2010-037A,2026-06-11T04:39:22.592736,1.00271613,.00043378,0.0453,148.5057,323.7153,210.1826,0,U,36830,999,5831,0,-.4E-6,0
RASCOM-QAF 1R,2010-037B,2026-06-11T04:42:14.818176,1.00271382,.00067674,0.0076,40.9164,35.6246,256.4524,0,U,36831,999,5824,0,.36E-6,0
AEHF-1 (USA 214),2010-039A,2026-06-10T22:31:35.528160,1.00271626,.00039135,8.2029,68.1290,6.5164,192.4639,0,U,36868,999,5359,0,.16E-5,0
XM-5,2010-053A,2026-06-10T22:01:38.563680,1.00269607,.00029273,0.0638,273.9953,284.4226,276.0636,0,U,37185,999,5742,0,-.5E-7,0
BSAT-3B,2010-056B,2026-06-11T00:04:49.681056,1.00270693,.00014119,0.0758,248.9835,300.3987,181.0407,0,U,37207,999,5203,0,-.333E-5,0
BEIDOU-2 G4,2010-057A,2026-06-11T01:09:21.130272,1.00271518,.00049954,3.6304,68.9848,198.4306,169.3376,0,U,37210,999,5723,0,-.97E-6,0
SKYTERRA 1,2010-061A,2026-06-10T07:40:31.381824,1.00268505,.00023068,5.1097,50.8591,10.4068,211.2027,0,U,37218,999,5712,0,-.103E-5,0
HYLAS 1,2010-065A,2026-06-10T22:17:39.521760,1.00273154,.00008998,5.6269,73.0945,311.3587,223.0577,0,U,37237,999,682,0,.105E-5,0
INTELSAT 17 (IS-17),2010-065B,2026-06-11T03:17:32.298432,1.00270702,.00025776,0.0140,104.3450,344.4483,286.0783,0,U,37238,999,5318,0,.16E-6,0
BEIDOU-2 IGSO-2,2010-068A,2026-06-10T16:33:25.834176,1.00285724,.00555234,47.5603,271.9154,212.3969,130.7661,0,U,37256,999,5672,0,-.227E-5,0
EUTELSAT KA-SAT 9A,2010-069A,2026-06-10T23:35:36.631104,1.00271507,.00039365,0.0610,10.3856,122.2918,129.5710,0,U,37258,999,4394,0,.79E-6,0
HISPASAT 30W-5,2010-070A,2026-06-11T06:43:15.664224,1.00268384,.00051479,0.0428,145.1492,319.1474,226.1361,0,U,37264,999,5312,0,-.199E-5,0
KOREASAT 6,2010-070B,2026-06-11T05:08:38.764320,1.00270877,.0002005,0.0027,348.2837,102.7500,45.5848,0,U,37265,999,5671,0,-.94E-6,0
BEIDOU-2 IGSO-3,2011-013A,2026-06-09T14:15:47.178720,1.00270057,.00343795,62.3960,40.2253,184.4451,355.1654,0,U,37384,999,5558,0,-.192E-5,0
INTELSAT 28 (IS-28),2011-016A,2026-06-11T04:36:54.616320,1.00271416,.00036868,1.7899,82.6931,2.3471,212.0266,0,U,37392,999,5322,0,-.208E-5,0
YAHSAT 1A,2011-016B,2026-06-10T20:59:23.489952,1.00265650,.00027466,0.0193,350.4004,108.4351,167.7131,0,U,37393,999,4234,0,0,0
SBIRS GEO-1 (USA 230),2011-019A,2026-06-11T04:56:13.477920,1.00272431,.00021522,4.5235,53.1308,19.1221,313.1523,0,U,37481,999,5533,0,.114E-5,0
TELSTAR 14R,2011-021A,2026-06-10T21:32:46.094208,1.00268785,.00021903,0.0028,3.9890,54.9233,100.5404,0,U,37602,999,5577,0,-.262E-5,0
GSAT-8,2011-022A,2026-06-11T04:57:05.894208,1.00271617,.00023048,2.1148,81.8932,206.4188,100.5863,0,U,37605,999,5315,0,.101E-5,0
ST-2,2011-022B,2026-06-11T03:23:54.188160,1.00267627,.00015633,0.0166,304.3949,152.7789,301.2901,0,U,37606,999,5521,0,-.193E-5,0
ZHONGXING-10,2011-026A,2026-06-11T03:23:09.260160,1.00269879,.00035156,1.0299,84.2860,1.3532,310.1636,0,U,37677,999,5493,0,-.171E-5,0
SES-3,2011-035A,2026-06-11T06:27:29.434752,1.00270485,.00025091,1.3107,83.1495,352.4924,177.8342,0,U,37748,999,5453,0,-.85E-6,0
KAZSAT-2,2011-035B,2026-06-10T17:07:24.256416,1.00269108,.00013566,0.0327,246.7151,265.8972,89.7957,0,U,37749,999,5333,0,-.179E-5,0
